YAOGAN-43 01D           
1 60461U 24148D   26068.43560480  .00010676  00000+0  37766-3 0  9999
2 60461  35.0010  61.7102 0002556 326.2473  33.8080 15.28369377 87008
STARLINK-33990          
1 63840U 25093E   26068.04214292  .00043833  00000+0  15920-2 0  9995
2 63840  43.0025  81.5030 0002507 278.0352  82.0216 15.27598871 47659
